API VERSION: 1.2
API SOURCE: NASA/JPL Horizons API



*******************************************************************************
Ephemeris / API_USER Mon Oct 30 14:05:45 2023 Pasadena, USA      / Horizons    
*******************************************************************************
Target body name: Moon (301)                      {source: DE441}
Center body name: Earth (399)                     {source: DE441}
Center-site name: GEOCENTRIC
*******************************************************************************
Start time      : A.D. 2055-Jan-01 00:00:00.0000 UT      
Stop  time      : A.D. 2056-Jan-01 00:00:00.0000 UT      
Step-size       : 60 minutes
*******************************************************************************
Target pole/equ : MOON_ME                         {East-longitude positive}
Target radii    : 1737.4, 1737.4, 1737.4 km       {Equator_a, b, pole_c}       
Center geodetic : 0.0, 0.0, -6378.137             {E-lon(deg),Lat(deg),Alt(km)}
Center cylindric: 0.0, 0.0, 0.0                   {E-lon(deg),Dxy(km),Dz(km)}
Center pole/equ : ITRF93                          {East-longitude positive}
Center radii    : 6378.137, 6378.137, 6356.752 km {Equator_a, b, pole_c}       
Target primary  : Earth
Vis. interferer : MOON (R_eq= 1737.400) km        {source: DE441}
Rel. light bend : Sun                             {source: DE441}
Rel. lght bnd GM: 1.3271E+11 km^3/s^2                                          
Atmos refraction: NO (AIRLESS)
RA format       : HMS
Time format     : CAL 
Calendar mode   : Mixed Julian/Gregorian
EOP file        : eop.231027.p240119                                           
EOP coverage    : DATA-BASED 1962-JAN-20 TO 2023-OCT-27. PREDICTS-> 2024-JAN-18
Units conversion: 1 au= 149597870.700 km, c= 299792.458 km/s, 1 day= 86400.0 s 
Table cut-offs 1: Elevation (-90.0deg=NO ),Airmass (>38.000=NO), Daylight (NO )
Table cut-offs 2: Solar elongation (  0.0,180.0=NO ),Local Hour Angle( 0.0=NO )
Table cut-offs 3: RA/DEC angular rate (     0.0=NO )                           
Table format    : Comma Separated Values (spreadsheet)
***********************************************************************************************************************************************
 Date__(UT)__HR:MN, , , R.A._(ICRF), DEC__(ICRF),      Illu%,  ObsSub-LON, ObsSub-LAT,  SunSub-LON, SunSub-LAT,    NP.ang,  NP.dist,     S-T-O,
***********************************************************************************************************************************************
$$SOE
 2055-Jun-30 15:00, , , 11 33 09.09, +06 40 03.5,   35.63038,  359.545903,  -4.433597,  106.369178,  -0.838531,   24.5027, -967.465,  106.7035,
 2055-Jun-30 16:00, , , 11 35 24.12, +06 28 13.7,   36.09298,  359.589114,  -4.485958,  105.859569,  -0.837455,   24.5177, -967.384,  106.1508,
 2055-Jun-30 17:00, , , 11 37 39.03, +06 16 21.8,   36.55683,  359.632370,  -4.537837,  105.349973,  -0.836379,   24.5302, -967.300,  105.5982,
 2055-Jun-30 18:00, , , 11 39 53.82, +06 04 27.7,   37.02190,  359.675670,  -4.589226,  104.840388,  -0.835302,   24.5403, -967.213,  105.0455,
 2055-Jun-30 19:00, , , 11 42 08.51, +05 52 31.6,   37.48813,  359.719011,  -4.640121,  104.330816,  -0.834226,   24.5477, -967.123,  104.4930,
 2055-Jun-30 20:00, , , 11 44 23.09, +05 40 33.5,   37.95548,  359.762390,  -4.690515,  103.821255,  -0.833149,   24.5527, -967.031,  103.9405,
 2055-Jun-30 21:00, , , 11 46 37.57, +05 28 33.6,   38.42390,  359.805806,  -4.740403,  103.311706,  -0.832072,   24.5552, -966.936,  103.3880,
 2055-Jun-30 22:00, , , 11 48 51.94, +05 16 31.9,   38.89335,  359.849254,  -4.789780,  102.802169,  -0.830995,   24.5552, -966.838,  102.8356,
 2055-Jun-30 23:00, , , 11 51 06.22, +05 04 28.4,   39.36378,  359.892734,  -4.838639,  102.292645,  -0.829918,   24.5527, -966.738,  102.2832,
 2055-Jul-01 00:00, , , 11 53 20.40, +04 52 23.2,   39.83515,  359.936242,  -4.886976,  101.783132,  -0.828841,   24.5477, -966.635,  101.7310,
 2055-Jul-01 01:00, , , 11 55 34.48, +04 40 16.5,   40.30740,  359.979777,  -4.934786,  101.273631,  -0.827763,   24.5402, -966.530,  101.1788,
 2055-Jul-01 02:00, , , 11 57 48.47, +04 28 08.3,   40.78050,    0.023335,  -4.982062,  100.764143,  -0.826685,   24.5302, -966.422,  100.6266,
 2055-Jul-01 03:00, , , 12 00 02.38, +04 15 58.6,   41.25439,    0.066914,  -5.028800,  100.254666,  -0.825607,   24.5177, -966.312,  100.0745,
 2055-Jul-01 04:00, , , 12 02 16.20, +04 03 47.6,   41.72903,    0.110512,  -5.074995,   99.745202,  -0.824529,   24.5028, -966.200,   99.5225,
 2055-Jul-01 05:00, , , 12 04 29.94, +03 51 35.2,   42.20438,    0.154125,  -5.120641,   99.235750,  -0.823450,   24.4854, -966.086,   98.9706,
 2055-Jul-01 06:00, , , 12 06 43.59, +03 39 21.7,   42.68037,    0.197753,  -5.165734,   98.726309,  -0.822371,   24.4655, -965.969,   98.4188,
 2055-Jul-01 07:00, , , 12 08 57.17, +03 27 07.0,   43.15698,    0.241391,  -5.210269,   98.216882,  -0.821292,   24.4432, -965.850,   97.8670,
 2055-Jul-01 08:00, , , 12 11 10.68, +03 14 51.2,   43.63416,    0.285037,  -5.254241,   97.707466,  -0.820213,   24.4184, -965.729,   97.3153,
 2055-Jul-01 09:00, , , 12 13 24.11, +03 02 34.5,   44.11184,    0.328689,  -5.297644,   97.198062,  -0.819134,   24.3912, -965.605,   96.7637,
 2055-Jul-01 10:00, , , 12 15 37.48, +02 50 16.7,   44.59000,    0.372344,  -5.340475,   96.688671,  -0.818054,   24.3615, -965.480,   96.2122,
 2055-Jul-01 11:00, , , 12 17 50.78, +02 37 58.2,   45.06858,    0.416000,  -5.382728,   96.179292,  -0.816974,   24.3295, -965.353,   95.6607,
 2055-Jul-01 12:00, , , 12 20 04.01, +02 25 38.8,   45.54754,    0.459653,  -5.424400,   95.669925,  -0.815894,   24.2949, -965.223,   95.1094,
 2055-Jul-01 13:00, , , 12 22 17.19, +02 13 18.8,   46.02683,    0.503302,  -5.465485,   95.160570,  -0.814814,   24.2580, -965.092,   94.5582,
 2055-Jul-01 14:00, , , 12 24 30.31, +02 00 58.1,   46.50640,    0.546943,  -5.505980,   94.651227,  -0.813733,   24.2186, -964.959,   94.0070,
 2055-Jul-01 15:00, , , 12 26 43.38, +01 48 36.9,   46.98621,    0.590574,  -5.545879,   94.141897,  -0.812652,   24.1769, -964.824,   93.4560,
 2055-Jul-01 16:00, , , 12 28 56.39, +01 36 15.1,   47.46621,    0.634192,  -5.585180,   93.632579,  -0.811571,   24.1327, -964.687,   92.9050,
 2055-Jul-01 17:00, , , 12 31 09.36, +01 23 52.9,   47.94636,    0.677794,  -5.623876,   93.123273,  -0.810489,   24.0862, -964.548,   92.3542,
 2055-Jul-01 18:00, , , 12 33 22.28, +01 11 30.4,   48.42660,    0.721378,  -5.661965,   92.613979,  -0.809408,   24.0372, -964.408,   91.8035,
 2055-Jul-01 19:00, , , 12 35 35.16, +00 59 07.6,   48.90689,    0.764941,  -5.699442,   92.104697,  -0.808326,   23.9859, -964.266,   91.2528,
 2055-Jul-01 20:00, , , 12 37 48.00, +00 46 44.6,   49.38719,    0.808480,  -5.736304,   91.595428,  -0.807243,   23.9322, -964.122,   90.7023,
 2055-Jul-01 21:00, , , 12 40 00.81, +00 34 21.5,   49.86745,    0.851992,  -5.772546,   91.086171,  -0.806161,   23.8761, -963.977,   90.1519,
 2055-Jul-01 22:00, , , 12 42 13.58, +00 21 58.3,   50.34763,    0.895475,  -5.808165,   90.576926,  -0.805078,   23.8177, -963.830,   89.6016,
 2055-Jul-01 23:00, , , 12 44 26.32, +00 09 35.1,   50.82767,    0.938925,  -5.843157,   90.067693,  -0.803994,   23.7570, -963.682,   89.0514,
 2055-Jul-02 00:00, , , 12 46 39.04, -00 02 48.0,   51.30753,    0.982340,  -5.877518,   89.558472,  -0.802911,   23.6939, -963.532,   88.5014,
 2055-Jul-02 01:00, , , 12 48 51.73, -00 15 10.9,   51.78716,    1.025717,  -5.911245,   89.049264,  -0.801827,   23.6284, -963.381,   87.9514,
 2055-Jul-02 02:00, , , 12 51 04.40, -00 27 33.6,   52.26653,    1.069053,  -5.944335,   88.540068,  -0.800742,   23.5607, -963.228,   87.4016,
 2055-Jul-02 03:00, , , 12 53 17.05, -00 39 56.1,   52.74558,    1.112345,  -5.976783,   88.030884,  -0.799658,   23.4906, -963.074,   86.8519,
 2055-Jul-02 04:00, , , 12 55 29.69, -00 52 18.1,   53.22426,    1.155590,  -6.008587,   87.521712,  -0.798573,   23.4182, -962.918,   86.3024,
 2055-Jul-02 05:00, , , 12 57 42.31, -01 04 39.7,   53.70254,    1.198785,  -6.039743,   87.012552,  -0.797487,   23.3435, -962.761,   85.7529,
 2055-Jul-02 06:00, , , 12 59 54.93, -01 17 00.8,   54.18037,    1.241928,  -6.070248,   86.503404,  -0.796402,   23.2665, -962.603,   85.2036,
 2055-Jul-02 07:00, , , 13 02 07.54, -01 29 21.4,   54.65769,    1.285014,  -6.100100,   85.994268,  -0.795316,   23.1873, -962.444,   84.6544,
 2055-Jul-02 08:00, , , 13 04 20.14, -01 41 41.2,   55.13447,    1.328042,  -6.129295,   85.485145,  -0.794229,   23.1057, -962.283,   84.1054,
 2055-Jul-02 09:00, , , 13 06 32.75, -01 54 00.4,   55.61067,    1.371008,  -6.157829,   84.976033,  -0.793142,   23.0220, -962.121,   83.5565,
 2055-Jul-02 10:00, , , 13 08 45.36, -02 06 18.7,   56.08623,    1.413909,  -6.185702,   84.466934,  -0.792055,   22.9359, -961.958,   83.0077,
 2055-Jul-02 11:00, , , 13 10 57.97, -02 18 36.2,   56.56111,    1.456742,  -6.212909,   83.957846,  -0.790967,   22.8476, -961.794,   82.4591,
 2055-Jul-02 12:00, , , 13 13 10.60, -02 30 52.8,   57.03527,    1.499504,  -6.239448,   83.448770,  -0.789879,   22.7571, -961.629,   81.9106,
 2055-Jul-02 13:00, , , 13 15 23.23, -02 43 08.3,   57.50866,    1.542192,  -6.265316,   82.939707,  -0.788791,   22.6643, -961.462,   81.3622,
 2055-Jul-02 14:00, , , 13 17 35.88, -02 55 22.8,   57.98123,    1.584802,  -6.290511,   82.430655,  -0.787702,   22.5693, -961.295,   80.8140,
 2055-Jul-02 15:00, , , 13 19 48.55, -03 07 36.1,   58.45295,    1.627332,  -6.315031,   81.921616,  -0.786612,   22.4722, -961.126,   80.2660,
 2055-Jul-02 16:00, , , 13 22 01.24, -03 19 48.3,   58.92377,    1.669778,  -6.338873,   81.412588,  -0.785522,   22.3728, -960.957,   79.7180,
 2055-Jul-02 17:00, , , 13 24 13.95, -03 31 59.1,   59.39364,    1.712138,  -6.362035,   80.903572,  -0.784432,   22.2712, -960.786,   79.1703,
